[
  {
    "OBJECT_NAME": "STARLINK-5403",
    "OBJECT_ID": "22177AU",
    "EPOCH": "2025-11-11T07:27:15.296544",
    "MEAN_MOTION": 15.02537635,
    "ECCENTRICITY": 0.0001301,
    "INCLINATION": 43.0044,
    "RA_OF_ASC_NODE": 43.9462,
    "ARG_OF_PERICENTER": 248.0567,
    "MEAN_ANOMALY": 112.0137,
    "EPHEMERIS_TYPE": 0,
    "CLASSIFICATION_TYPE": "U",
    "NORAD_CAT_ID": 54862,
    "ELEMENT_SET_NO": 999,
    "REV_AT_EPOCH": 15929,
    "BSTAR": 1.5148000000000001e-05,
    "MEAN_MOTION_DOT": 1e-08,
    "MEAN_MOTION_DDOT": 0.0,
    "TLE_LINE1": "1 54862U 22177AU  25315.31059371  .00000001  00000+0  15148-4 0  9992",
    "TLE_LINE2": "2 54862  43.0044  43.9462 0001301 248.0567 112.0137 15.02537635159295",
    "COMMENT": "Grouped by shell and plane from TLE"
  },
  {
    "OBJECT_NAME": "STARLINK-5405",
    "OBJECT_ID": "22177AV",
    "EPOCH": "2025-11-11T06:42:29.903328",
    "MEAN_MOTION": 15.02532928,
    "ECCENTRICITY": 0.0001105,
    "INCLINATION": 43.0037,
    "RA_OF_ASC_NODE": 43.7004,
    "ARG_OF_PERICENTER": 273.1184,
    "MEAN_ANOMALY": 86.9532,
    "EPHEMERIS_TYPE": 0,
    "CLASSIFICATION_TYPE": "U",
    "NORAD_CAT_ID": 54863,
    "ELEMENT_SET_NO": 999,
    "REV_AT_EPOCH": 15929,
    "BSTAR": 1.5865e-05,
    "MEAN_MOTION_DOT": 1.1e-07,
    "MEAN_MOTION_DDOT": 0.0,
    "TLE_LINE1": "1 54863U 22177AV  25315.27951277  .00000011  00000+0  15865-4 0  9991",
    "TLE_LINE2": "2 54863  43.0037  43.7004 0001105 273.1184  86.9532 15.02532928159292",
    "COMMENT": "Grouped by shell and plane from TLE"
  },
  {
    "OBJECT_NAME": "STARLINK-5359",
    "OBJECT_ID": "22177AW",
    "EPOCH": "2025-11-11T06:24:55.020672",
    "MEAN_MOTION": 15.02536089,
    "ECCENTRICITY": 0.0001191,
    "INCLINATION": 43.0031,
    "RA_OF_ASC_NODE": 43.6031,
    "ARG_OF_PERICENTER": 272.6589,
    "MEAN_ANOMALY": 87.4117,
    "EPHEMERIS_TYPE": 0,
    "CLASSIFICATION_TYPE": "U",
    "NORAD_CAT_ID": 54864,
    "ELEMENT_SET_NO": 999,
    "REV_AT_EPOCH": 15929,
    "BSTAR": 2.0719000000000003e-05,
    "MEAN_MOTION_DOT": 7.6e-07,
    "MEAN_MOTION_DDOT": 0.0,
    "TLE_LINE1": "1 54864U 22177AW  25315.26730348  .00000076  00000+0  20719-4 0  9990",
    "TLE_LINE2": "2 54864  43.0031  43.6031 0001191 272.6589  87.4117 15.02536089159291",
    "COMMENT": "Grouped by shell and plane from TLE"
  },
  {
    "OBJECT_NAME": "STARLINK-5411",
    "OBJECT_ID": "22177AX",
    "EPOCH": "2025-11-11T06:47:17.395872",
    "MEAN_MOTION": 15.02540535,
    "ECCENTRICITY": 0.0001301,
    "INCLINATION": 43.005,
    "RA_OF_ASC_NODE": 43.7265,
    "ARG_OF_PERICENTER": 271.424,
    "MEAN_ANOMALY": 88.6454,
    "EPHEMERIS_TYPE": 0,
    "CLASSIFICATION_TYPE": "U",
    "NORAD_CAT_ID": 54865,
    "ELEMENT_SET_NO": 999,
    "REV_AT_EPOCH": 15929,
    "BSTAR": 5.4835000000000006e-05,
    "MEAN_MOTION_DOT": 5.37e-06,
    "MEAN_MOTION_DDOT": 0.0,
    "TLE_LINE1": "1 54865U 22177AX  25315.28284023  .00000537  00000+0  54835-4 0  9995",
    "TLE_LINE2": "2 54865  43.0050  43.7265 0001301 271.4240  88.6454 15.02540535159295",
    "COMMENT": "Grouped by shell and plane from TLE"
  },
  {
    "OBJECT_NAME": "STARLINK-5398",
    "OBJECT_ID": "22177AY",
    "EPOCH": "2025-11-11T06:10:32.187936",
    "MEAN_MOTION": 15.0254291,
    "ECCENTRICITY": 0.0001424,
    "INCLINATION": 43.0047,
    "RA_OF_ASC_NODE": 43.5289,
    "ARG_OF_PERICENTER": 271.6714,
    "MEAN_ANOMALY": 88.3965,
    "EPHEMERIS_TYPE": 0,
    "CLASSIFICATION_TYPE": "U",
    "NORAD_CAT_ID": 54866,
    "ELEMENT_SET_NO": 999,
    "REV_AT_EPOCH": 15929,
    "BSTAR": 9.1614e-05,
    "MEAN_MOTION_DOT": 1.034e-05,
    "MEAN_MOTION_DDOT": 0.0,
    "TLE_LINE1": "1 54866U 22177AY  25315.25731699  .00001034  00000+0  91614-4 0  9998",
    "TLE_LINE2": "2 54866  43.0047  43.5289 0001424 271.6714  88.3965 15.02542910159293",
    "COMMENT": "Grouped by shell and plane from TLE"
  },
  {
    "OBJECT_NAME": "STARLINK-5396",
    "OBJECT_ID": "22177AZ",
    "EPOCH": "2025-11-11T06:28:07.614912",
    "MEAN_MOTION": 15.02602527,
    "ECCENTRICITY": 0.0001224,
    "INCLINATION": 43.0046,
    "RA_OF_ASC_NODE": 43.6228,
    "ARG_OF_PERICENTER": 279.5899,
    "MEAN_ANOMALY": 80.4806,
    "EPHEMERIS_TYPE": 0,
    "CLASSIFICATION_TYPE": "U",
    "NORAD_CAT_ID": 54867,
    "ELEMENT_SET_NO": 999,
    "REV_AT_EPOCH": 15929,
    "BSTAR": 0.0,
    "MEAN_MOTION_DOT": -0.0001096,
    "MEAN_MOTION_DDOT": 0.0,
    "TLE_LINE1": "1 54867U 22177AZ  25315.26953258 -.00010960  00000+0 -79610-3 0  9998",
    "TLE_LINE2": "2 54867  43.0046  43.6228 0001224 279.5899  80.4806 15.02602527159294",
    "COMMENT": "Grouped by shell and plane from TLE"
  },
  {
    "OBJECT_NAME": "STARLINK-5379",
    "OBJECT_ID": "22177BA",
    "EPOCH": "2025-11-11T06:04:08.169312",
    "MEAN_MOTION": 15.02546022,
    "ECCENTRICITY": 0.0001294,
    "INCLINATION": 43.0047,
    "RA_OF_ASC_NODE": 43.5009,
    "ARG_OF_PERICENTER": 267.6262,
    "MEAN_ANOMALY": 92.4432,
    "EPHEMERIS_TYPE": 0,
    "CLASSIFICATION_TYPE": "U",
    "NORAD_CAT_ID": 54868,
    "ELEMENT_SET_NO": 999,
    "REV_AT_EPOCH": 15929,
    "BSTAR": 0.00021967999999999998,
    "MEAN_MOTION_DOT": 2.766e-05,
    "MEAN_MOTION_DDOT": 0.0,
    "TLE_LINE1": "1 54868U 22177BA  25315.25287233  .00002766  00000+0  21968-3 0  9997",
    "TLE_LINE2": "2 54868  43.0047  43.5009 0001294 267.6262  92.4432 15.02546022159296",
    "COMMENT": "Grouped by shell and plane from TLE"
  },
  {
    "OBJECT_NAME": "STARLINK-5402",
    "OBJECT_ID": "22177BB",
    "EPOCH": "2025-11-11T06:18:31.269888",
    "MEAN_MOTION": 15.02542255,
    "ECCENTRICITY": 0.000136,
    "INCLINATION": 43.0058,
    "RA_OF_ASC_NODE": 43.576,
    "ARG_OF_PERICENTER": 269.292,
    "MEAN_ANOMALY": 90.7766,
    "EPHEMERIS_TYPE": 0,
    "CLASSIFICATION_TYPE": "U",
    "NORAD_CAT_ID": 54869,
    "ELEMENT_SET_NO": 999,
    "REV_AT_EPOCH": 15929,
    "BSTAR": 8.546000000000001e-05,
    "MEAN_MOTION_DOT": 9.51e-06,
    "MEAN_MOTION_DDOT": 0.0,
    "TLE_LINE1": "1 54869U 22177BB  25315.26286192  .00000951  00000+0  85460-4 0  9994",
    "TLE_LINE2": "2 54869  43.0058  43.5760 0001360 269.2920  90.7766 15.02542255159291",
    "COMMENT": "Grouped by shell and plane from TLE"
  },
  {
    "OBJECT_NAME": "STARLINK-5401",
    "OBJECT_ID": "22177BC",
    "EPOCH": "2025-11-11T06:07:20.188128",
    "MEAN_MOTION": 15.02537197,
    "ECCENTRICITY": 0.0001343,
    "INCLINATION": 43.0051,
    "RA_OF_ASC_NODE": 43.5198,
    "ARG_OF_PERICENTER": 269.3207,
    "MEAN_ANOMALY": 90.7481,
    "EPHEMERIS_TYPE": 0,
    "CLASSIFICATION_TYPE": "U",
    "NORAD_CAT_ID": 54870,
    "ELEMENT_SET_NO": 999,
    "REV_AT_EPOCH": 15929,
    "BSTAR": 2.8805e-05,
    "MEAN_MOTION_DOT": 1.85e-06,
    "MEAN_MOTION_DDOT": 0.0,
    "TLE_LINE1": "1 54870U 22177BC  25315.25509477  .00000185  00000+0  28805-4 0  9998",
    "TLE_LINE2": "2 54870  43.0051  43.5198 0001343 269.3207  90.7481 15.02537197159294",
    "COMMENT": "Grouped by shell and plane from TLE"
  },
  {
    "OBJECT_NAME": "STARLINK-5397",
    "OBJECT_ID": "22177BD",
    "EPOCH": "2025-11-11T06:20:07.316448",
    "MEAN_MOTION": 15.02543448,
    "ECCENTRICITY": 0.0001346,
    "INCLINATION": 43.0054,
    "RA_OF_ASC_NODE": 43.5848,
    "ARG_OF_PERICENTER": 269.6219,
    "MEAN_ANOMALY": 90.447,
    "EPHEMERIS_TYPE": 0,
    "CLASSIFICATION_TYPE": "U",
    "NORAD_CAT_ID": 54871,
    "ELEMENT_SET_NO": 999,
    "REV_AT_EPOCH": 15929,
    "BSTAR": 0.00014802,
    "MEAN_MOTION_DOT": 1.797e-05,
    "MEAN_MOTION_DDOT": 0.0,
    "TLE_LINE1": "1 54871U 22177BD  25315.26397357  .00001797  00000+0  14802-3 0  9993",
    "TLE_LINE2": "2 54871  43.0054  43.5848 0001346 269.6219  90.4470 15.02543448159290",
    "COMMENT": "Grouped by shell and plane from TLE"
  },
  {
    "OBJECT_NAME": "STARLINK-5390",
    "OBJECT_ID": "22177BE",
    "EPOCH": "2025-11-11T07:31:52.658688",
    "MEAN_MOTION": 15.0252603,
    "ECCENTRICITY": 0.0001642,
    "INCLINATION": 43.0054,
    "RA_OF_ASC_NODE": 43.1235,
    "ARG_OF_PERICENTER": 276.9326,
    "MEAN_ANOMALY": 83.1329,
    "EPHEMERIS_TYPE": 0,
    "CLASSIFICATION_TYPE": "U",
    "NORAD_CAT_ID": 54872,
    "ELEMENT_SET_NO": 999,
    "REV_AT_EPOCH": 15930,
    "BSTAR": 0.00042014,
    "MEAN_MOTION_DOT": 5.475e-05,
    "MEAN_MOTION_DDOT": 0.0,
    "TLE_LINE1": "1 54872U 22177BE  25315.31380392  .00005475  00000+0  42014-3 0  9994",
    "TLE_LINE2": "2 54872  43.0054  43.1235 0001642 276.9326  83.1329 15.02526030159308",
    "COMMENT": "Grouped by shell and plane from TLE"
  },
  {
    "OBJECT_NAME": "STARLINK-5091",
    "OBJECT_ID": "22177BF",
    "EPOCH": "2025-11-11T07:35:04.149600",
    "MEAN_MOTION": 15.0254486,
    "ECCENTRICITY": 0.0001346,
    "INCLINATION": 43.007,
    "RA_OF_ASC_NODE": 43.1152,
    "ARG_OF_PERICENTER": 265.3026,
    "MEAN_ANOMALY": 94.7662,
    "EPHEMERIS_TYPE": 0,
    "CLASSIFICATION_TYPE": "U",
    "NORAD_CAT_ID": 54873,
    "ELEMENT_SET_NO": 999,
    "REV_AT_EPOCH": 15930,
    "BSTAR": 6.934399999999999e-05,
    "MEAN_MOTION_DOT": 7.33e-06,
    "MEAN_MOTION_DDOT": 0.0,
    "TLE_LINE1": "1 54873U 22177BF  25315.31602025  .00000733  00000+0  69344-4 0  9993",
    "TLE_LINE2": "2 54873  43.0070  43.1152 0001346 265.3026  94.7662 15.02544860159304",
    "COMMENT": "Grouped by shell and plane from TLE"
  },
  {
    "OBJECT_NAME": "STARLINK-5642",
    "OBJECT_ID": "23014AR",
    "EPOCH": "2025-11-11T06:39:33.789888",
    "MEAN_MOTION": 14.98334591,
    "ECCENTRICITY": 0.0003132,
    "INCLINATION": 70.0009,
    "RA_OF_ASC_NODE": 42.9372,
    "ARG_OF_PERICENTER": 270.736,
    "MEAN_ANOMALY": 89.344,
    "EPHEMERIS_TYPE": 0,
    "CLASSIFICATION_TYPE": "U",
    "NORAD_CAT_ID": 55430,
    "ELEMENT_SET_NO": 999,
    "REV_AT_EPOCH": 15333,
    "BSTAR": 6.0292000000000005e-05,
    "MEAN_MOTION_DOT": 6.27e-06,
    "MEAN_MOTION_DDOT": 0.0,
    "TLE_LINE1": "1 55430U 23014AR  25315.27747442  .00000627  00000+0  60292-4 0  9997",
    "TLE_LINE2": "2 55430  70.0009  42.9372 0003132 270.7360  89.3440 14.98334591153336",
    "COMMENT": "Grouped by shell and plane from TLE"
  }
]